C/2013 B2 (Catalina),h,06/30.2894/2013,43.4635,332.0143,156.5274,1.000720,3.746259,2000,11.0,4.0
# From MPC110080
C/2013 C2 (Tenagra),e,21.3389,247.5295,309.2596,16.05193,0.0153254,0.43054994,15.4223,06/12.0/2018,2000,g  4.0,4.0
# From MPC 86642
P/2013 CU129 (PANSTARRS),e,12.1554,46.2285,211.9276,2.877554,0.2019151,0.72273200,357.5074,06/12.0/2018,2000,g 18.0,2.0
# From MPC 84024
C/2013 D1 (Holvorcem),e,10.0692,294.9002,252.9051,11.30982,0.0259132,0.78162800,48.8500,06/12.0/2018,2000,g 14.0,4.0
# From MPC 90270
C/2013 E1 (McNaught),h,06/16.7092/2013,158.7385,134.0607,311.8018,1.000786,7.801381,2000,5.5,4.0
# From MPC 88327
C/2013 E2 (Iwamoto),e,21.8603,182.4497,95.6782,224.6147,0.0002928,0.99375239,0.0000,03/10.5068/2013,2000,g 11.5,4.0
# From MPC 88695
P/2013 EW90 (Tenagra),e,31.7927,160.3313,346.4945,4.114566,0.1180913,0.19531880,244.2249,06/12.0/2018,2000,g 12.0,4.0
# From MPC 84626
C/2013 F1 (Boattini),h,11/30.5195/2012,79.5941,30.0652,92.1016,1.002180,1.869943,2000,13.0,4.0
# From MPC 88695
C/2013 F2 (Catalina),e,61.8038,344.2865,123.1265,892.2214,0.0000370,0.99301340,0.0000,04/17.3868/2013,2000,g  7.0,4.0
# From MPC 84933
C/2013 F3 (McNaught),e,85.5747,266.0111,18.7626,612.1549,0.0000651,0.99631772,0.0000,05/25.2063/2013,2000,g 12.0,4.0
# From MPC 91612
P/2013 G1 (Kowalski),e,5.4746,221.4438,51.1973,6.878890,0.0546294,0.51346652,89.7556,06/12.0/2018,2000,g 11.0,4.0
# From MPC 84933
C/2013 G2 (McNaught),e,95.9115,273.9367,293.8387,18320,0.0000004,0.99988245,0.0000,12/05.5972/2012,2000,g 11.5,4.0
# From MPC102950
C/2013 G3 (PANSTARRS),h,11/15.9386/2014,64.6775,208.1087,76.5380,1.002133,3.851577,2000,9.0,4.0
# From MPC 84025
P/2013 G4 (PANSTARRS),e,5.9190,339.7097,214.6891,4.436875,0.1054601,0.41061558,205.2674,06/12.0/2018,2000,g 15.0,4.0
# From MPC 84318
C/2013 G5 (Catalina),e,40.6941,144.0892,165.6583,4637,0.0000031,0.99980110,0.0000,09/01.7931/2013,2000,g 14.0,4.0
# From MPC 87478
C/2013 G6 (Lemmon),e,124.1483,44.5465,215.8041,406.1128,0.0001204,0.99494220,0.0000,07/25.7570/2013,2000,g 13.5,4.0
# From MPC 95209
C/2013 G7 (McNaught),e,105.1166,48.3540,218.3966,2738,0.0000069,0.99828902,0.0000,03/19.8079/2014,2000,g  7.5,4.0
# From MPC 95209
C/2013 G8 (PANSTARRS),e,27.6492,240.9761,80.0759,2224,0.0000094,0.99769262,0.0000,11/14.8247/2013,2000,g  8.5,4.0
# From MPC 10027
C/2013 G9 (Tenagra),h,01/16.0411/2015,146.2530,35.7433,205.1652,1.000706,5.344941,2000,7.0,4.0
# From MPC 84933
C/2013 H1 (La Sagra),e,27.0695,84.8215,136.8205,203.3830,0.0003398,0.98695924,0.0000,05/20.3368/2013,2000,g 13.0,4.0
# From MPC 94670
C/2013 H2 (Boattini),e,128.3942,262.6819,36.0823,8479,0.0000013,0.99911441,0.0000,01/24.1707/2014,2000,g  6.5,4.0
# From MPC 91613
P/2013 J2 (McNaught),e,15.5214,289.4067,37.7485,6.227470,0.0634215,0.65613379,111.2357,06/12.0/2018,2000,g 13.0,4.0
# From MPC 87916
C/2013 J3 (McNaught),e,118.2083,200.7594,321.0865,1049,0.0000290,0.99618417,0.0000,02/21.5148/2013,2000,g 10.0,4.0
# From MPC 87066
P/2013 J4 (PANSTARRS),e,5.0352,84.0011,118.7706,2.475100,0.2531133,0.23099371,359.9443,11/04.0/2013,2000,g 14.0,4.0
# From MPC 84319
C/2013 J5 (Boattini),e,136.0319,256.6876,19.2100,1448,0.0000179,0.99660142,0.0000,11/28.8629/2012,2000,g 10.0,4.0
# From MPC 84627
C/2013 J6 (Catalina),e,84.9918,68.2883,125.7142,59.63107,0.0021404,0.95937172,4.0461,06/12.0/2018,2000,g 14.5,4.0
# From MPC 84319
C/2013 K1 (Christensen),e,42.4746,125.7416,171.3164,76.62587,0.0014694,0.98771038,0.0000,05/30.7406/2013,2000,g 18.0,4.0
# From MPC 87916
C/2013 L2 (Catalina),e,106.8049,285.7515,1.8132,3396,0.0000050,0.99856506,0.0000,05/09.2411/2012,2000,g  8.0,4.0
# From MPC 86229
P/2013 N3 (PANSTARRS),e,2.1709,17.6205,323.7820,7.395421,0.0490072,0.59165920,77.5082,06/12.0/2018,2000,g 13.0,4.0
# From MPC 88328
C/2013 N4 (Borisov),e,37.0119,322.7064,142.3368,47.55464,0.0030055,0.97436443,0.0000,08/19.8855/2013,2000,g 12.0,4.0
# From MPC 85834
P/2013 N5 (PANSTARRS),e,23.3562,187.2124,176.9120,6.806999,0.0554971,0.73038607,100.3675,06/12.0/2018,2000,g 17.0,4.0
# From MPC 87479
P/2013 O2 (PANSTARRS),e,13.3396,207.5428,213.3438,3.808206,0.1326244,0.44333131,217.0883,06/12.0/2018,2000,g 14.0,4.0
# From MPC 90767
C/2013 O3 (McNaught),e,102.8339,276.6340,337.9066,654.1505,0.0000589,0.99513510,0.0000,09/09.0613/2013,2000,g 11.5,4.0
# From MPC 85834
P/2013 P1 (PANSTARRS),e,18.7076,160.7465,137.8889,8.559402,0.0393585,0.60564845,76.0078,06/12.0/2018,2000,g 12.0,4.0
# From MPC 93584
C/2013 P2 (PANSTARRS),e,125.6396,2.0902,105.0231,736.1207,0.0000493,0.99613924,0.0000,02/15.3672/2014,2000,g 11.5,4.0
# From MPC108592
C/2013 P3 (Palomar),h,11/21.0465/2014,93.9038,177.2579,177.0306,1.000032,8.640269,2000,5.5,4.0
# From MPC 96865
C/2013 P4 (PANSTARRS),e,4.2713,256.5894,113.3381,14.67161,0.0175383,0.59387837,24.5938,06/12.0/2018,2000,g  7.5,4.0
# From MPC 88696
C/2013 PE67 (Catalina-Spacewatch),e,116.7429,325.9726,59.9478,51.82535,0.0026417,0.96380682,4.3562,06/12.0/2018,2000,g 14.0,4.0
# From MPC102950
C/2013 R1 (Lovejoy),e,63.8635,70.5845,67.2787,488.3980,0.0000913,0.99833061,0.0000,12/21.8374/2013,2000,g  7.0,4.0
# From MPC 94671
P/2013 R3 (Catalina-PANSTARRS),e,0.8654,342.0240,11.0949,3.032789,0.1866125,0.27448947,326.8933,06/12.0/2018,2000,g 14.0,4.0
# From unp
P/2013 R3-A (Catalina-PANSTARRS),e,0.8647,341.9909,11.1340,3.032648,0.1866255,0.27445866,326.9139,06/12.0/2018,2000,g  9.0,4.0
# From MPEC 2015-M77
P/2013 R3-B (Catalina-PANSTARRS),e,0.8660,342.0467,11.0688,3.032865,0.1866055,0.27450465,326.8824,06/12.0/2018,2000,g  9.0,4.0
# From MPC 86230
C/2013 S1 (Catalina),e,83.9552,221.6016,165.8948,2123,0.0000101,0.99867412,0.0000,08/02.3723/2013,2000,g 13.0,4.0
# From MPC 85835
P/2013 T1 (PANSTARRS),e,24.2241,10.1359,346.0780,5.868092,0.0693360,0.62203616,123.3299,06/12.0/2018,2000,g 16.5,4.0
# From MPC 86643
P/2013 T2 (Schwartz),e,9.4815,1.0113,345.3595,3.488930,0.1512397,0.50252672,278.9172,06/12.0/2018,2000,g 16.0,4.0
# From MPC104789
C/2013 TW5 (Spacewatch),e,31.4049,319.7031,190.5203,277.0981,0.0002137,0.97892499,0.0000,08/17.4529/2014,2000,g  7.5,4.0
# From MPC 88696
P/2013 TL117 (Lemmon),e,9.3648,3.3128,112.2824,3.607153,0.1438657,0.68902064,226.7158,06/12.0/2018,2000,g 17.5,4.0
# From MPC 86643
C/2013 U1 (Catalina),e,23.9408,211.2462,143.0189,11.87050,0.0240991,0.79674670,40.1631,06/12.0/2018,2000,g 13.5,4.0
# From MPC104790
C/2013 U2 (Holvorcem),e,43.2252,6.8831,107.9492,545.9474,0.0000773,0.99057539,0.0000,10/26.8614/2014,2000,g  7.5,4.0
# From MPC102951
C/2013 UQ4 (Catalina),e,145.0886,317.8311,23.6371,57.91777,0.0022361,0.98115739,0.0000,07/04.2056/2014,2000,g 13.5,4.0
# From MPC110080
C/2013 US10 (Catalina),h,11/15.7831/2015,148.8644,186.1884,340.4545,1.000453,0.824669,2000,4.4,4.0
# From MPC102951
C/2013 V1 (Boattini),h,04/20.2160/2014,65.0095,72.8182,48.1798,1.001507,1.669637,2000,10.5,4.0
# From MPC 10027
C/2013 V2 (Borisov),h,10/13.1799/2014,37.8356,48.3994,94.5185,1.001766,3.513456,2000,7.0,4.0
# From MPC 88329
C/2013 V3 (Nevski),e,32.1091,100.9846,339.5787,12.61239,0.0220043,0.88968527,37.1478,06/12.0/2018,2000,g 14.0,4.0
# From MPC110493
C/2013 V4 (Catalina),h,10/07.1116/2015,67.8582,55.6390,40.4318,1.000475,5.185950,2000,6.0,4.0
# From MPC102951
C/2013 V5 (Oukaimeden),e,154.8777,278.8244,314.8035,323.0441,0.0001698,0.99805267,0.0000,09/26.9229/2014,2000,g  9.0,4.0
# From MPC 91613
P/2013 W1 (PANSTARRS),e,4.6963,117.8566,1.3522,3.488030,0.1512982,0.59284947,235.7214,06/12.0/2018,2000,g 17.5,4.0
# From MPC109141
C/2013 W2 (PANSTARRS),e,4.8500,178.4197,304.1667,9.686768,0.0326916,0.54768378,42.3023,06/12.0/2018,2000,g 13.5,2.0
# From MPC110493
C/2013 X1 (PANSTARRS),h,04/20.3374/2016,163.1761,131.6616,165.1287,1.000502,1.314971,2000,10.5,2.0
# From MPC 90768
C/2013 Y2 (PANSTARRS),e,29.3949,243.2989,309.0777,239.4450,0.0002660,0.99195612,0.0000,06/13.5098/2014,2000,g 12.0,4.0
# From MPC101095
P/2013 YG46 (Spacewatch),e,7.8591,48.9076,242.3949,3.276808,0.1661604,0.45452062,82.8154,06/12.0/2018,2000,g 10.0,4.0
# From MPC 89728
P/2014 A2 (Hill),e,24.5369,106.6393,356.3454,5.922471,0.0683832,0.64776934,115.5657,06/12.0/2018,2000,g 15.0,4.0
# From MPC 92981
P/2014 A3 (PANSTARRS),e,13.6979,230.4637,212.1127,4.651357,0.0982504,0.24167805,185.4569,06/12.0/2018,2000,g 12.0,4.0
# From MPC108592
C/2014 A4 (SONEAR),e,121.3678,29.7321,356.6945,53038,0.0000001,0.99992125,0.0000,09/05.2445/2015,2000,g  6.0,4.0
# From MPC 93585
C/2014 A5 (PANSTARRS),e,31.9724,310.0532,182.4253,85.37047,0.0012495,0.94371974,1.7518,06/12.0/2018,2000,g 10.0,4.0
# From MPC 96865
C/2014 AA52 (Catalina),h,02/27.6389/2015,105.1725,330.4393,292.1724,1.000358,1.999077,2000,10.0,4.0
# From MPC110493
C/2014 B1 (Schwartz),h,09/11.0293/2017,28.3783,161.3940,345.8682,1.002785,9.556812,2000,4.0,4.0
# From MPC102095
P/2014 C1 (TOTAS),e,2.6807,167.8526,24.1204,3.043593,0.1856197,0.44649687,303.3441,06/12.0/2018,2000,g 15.5,4.0
# From MPC 88697
C/2014 C2 (STEREO),e,135.6692,283.5010,56.1984,665.2855,0.0000574,0.99922664,0.0000,02/18.2285/2014,2000,g 18.0,4.0
# From MPC 90272
C/2014 C3 (NEOWISE),e,151.7909,204.5141,346.0746,108.2273,0.0008754,0.98272960,0.0000,01/16.4079/2014,2000,g 14.0,4.0
# From MPC 91614
P/2014 E1 (Larson),e,15.9830,39.0627,185.9211,3.713874,0.1377093,0.42387628,203.9006,06/12.0/2018,2000,g 14.0,4.0
# From MPC102951
C/2014 E2 (Jacques),e,156.3105,56.6162,344.1509,645.8460,0.0000600,0.99897682,0.0000,07/02.2566/2014,2000,g  7.1,4.4
# From MPC 90769
C/2014 F1 (Hill),e,108.2730,239.8275,8.3363,2527,0.0000078,0.99861284,0.0000,10/04.6955/2013,2000,g 10.5,4.0
# From MPC 97495
C/2014 F2 (Tenagra),e,119.0990,267.4462,86.1485,149.2677,0.0005404,0.97107382,0.0000,01/03.0583/2015,2000,g  9.5,4.0
# From MPC 94280
C/2014 F3 (Sheppard-Trujillo),e,6.4823,327.4542,1.0438,16.29972,0.0149773,0.64860697,344.2166,06/12.0/2018,2000,g  6.0,4.0
# From MPC 90272
C/2014 G1 (PANSTARRS),e,165.6405,337.9552,77.1699,565.5959,0.0000733,0.99030559,0.0000,11/05.0037/2013,2000,g  9.0,4.0
# From MPC101095
